[{"OBJECT_NAME":"HAWK-11C","OBJECT_ID":"2024-247E","EPOCH":"2026-03-09T12:17:35.407968","MEAN_MOTION":15.2884802,"ECCENTRICITY":0.00059001,"INCLINATION":45.0045,"RA_OF_ASC_NODE":114.8762,"ARG_OF_PERICENTER":329.704,"MEAN_ANOMALY":30.3502,"EPHEMERIS_TYPE":0,"CLASSIFICATION_TYPE":"U","NORAD_CAT_ID":62381,"ELEMENT_SET_NO":999,"REV_AT_EPOCH":6774,"BSTAR":0.00033290115,"MEAN_MOTION_DOT":9.223e-5,"MEAN_MOTION_DDOT":0},{"OBJECT_NAME":"STARLINK-35666","OBJECT_ID":"2025-244S","EPOCH":"2026-03-09T17:25:22.518912","MEAN_MOTION":15.30163345,"ECCENTRICITY":0.00010388,"INCLINATION":53.1576,"RA_OF_ASC_NODE":229.841,"ARG_OF_PERICENTER":42.1864,"MEAN_ANOMALY":317.9216,"EPHEMERIS_TYPE":0,"CLASSIFICATION_TYPE":"U","NORAD_CAT_ID":66222,"ELEMENT_SET_NO":999,"REV_AT_EPOCH":2166,"BSTAR":0.00068969153,"MEAN_MOTION_DOT":0.000201,"MEAN_MOTION_DDOT":0}]
